{"type": "FeatureCollection", "features": [ {"type": "Feature", "properties": {"norad_id": 34141, "name": "COSMOS 2251 DEB", "group": "cosmos-2251-debris", "lat": 1.194045702042519, "lon": 16.740653089091882, "alt_km": 735.4849278531074, "timestamp": "2025-12-19T08:58:49.730902+00:00", "meta": {"OBJECT_NAME": "COSMOS 2251 DEB", "OBJECT_ID": "1993-036LN", "EPOCH": "2025-12-18T12:07:32.845728", "MEAN_MOTION": 14.49299004, "ECCENTRICITY": 0.00467087, "INCLINATION": 74.011, "RA_OF_ASC_NODE": 18.03, "ARG_OF_PERICENTER": 102.3034, "MEAN_ANOMALY": 47.712, "EPHEMERIS_TYPE": 0, "CLASSIFICATION_TYPE": "U", "NORAD_CAT_ID": 34141, "ELEMENT_SET_NO": 999, "REV_AT_EPOCH": 87777, "BSTAR": 0.0010815498, "MEAN_MOTION_DOT": 4.159e-05, "MEAN_MOTION_DDOT": 0}, "tle": {"line1": "1 34141U 93036LN  25352.50524127  .00004159  00000+0  10815-2 0  9992", "line2": "2 34141  74.0110  18.0300 0046708 102.3034  47.7120 14.49299004877777"}}, "geometry": {"type": "Point", "coordinates": [16.740653089091882, 1.194045702042519]}}, {"type": "Feature", "properties": {"norad_id": 34270, "name": "COSMOS 2251 DEB", "group": "cosmos-2251-debris", "lat": -21.52551940417869, "lon": -72.65141618628559, "alt_km": 691.0753590027944, "timestamp": "2025-12-19T08:58:49.730912+00:00", "meta": {"OBJECT_NAME": "COSMOS 2251 DEB", "OBJECT_ID": "1993-036LQ", "EPOCH": "2025-12-18T23:15:02.857248", "MEAN_MOTION": 14.65216438, "ECCENTRICITY": 0.00478308, "INCLINATION": 74.0115, "RA_OF_ASC_NODE": 294.6229, "ARG_OF_PERICENTER": 85.5775, "MEAN_ANOMALY": 275.0856, "EPHEMERIS_TYPE": 0, "CLASSIFICATION_TYPE": "U", "NORAD_CAT_ID": 34270, "ELEMENT_SET_NO": 999, "REV_AT_EPOCH": 89187, "BSTAR": 0.0005596183, "MEAN_MOTION_DOT": 3.034e-05, "MEAN_MOTION_DDOT": 0}, "tle": {"line1": "1 34270U 93036LQ  25352.96878307  .00003034  00000+0  55962-3 0  9991", "line2": "2 34270  74.0115 294.6229 0047830  85.5775 275.0856 14.65216438891875"}}, "geometry": {"type": "Point", "coordinates": [-72.65141618628559, -21.52551940417869]}}, {"type": "Feature", "properties": {"norad_id": 34271, "name": "COSMOS 2251 DEB", "group": "cosmos-2251-debris", "lat": 55.147700646780606, "lon": -149.26346483178213, "alt_km": 665.6346959200564, "timestamp": "2025-12-19T08:58:49.730922+00:00", "meta": {"OBJECT_NAME": "COSMOS 2251 DEB", "OBJECT_ID": "1993-036LR", "EPOCH": "2025-12-18T23:38:11.090112", "MEAN_MOTION": 14.70888158, "ECCENTRICITY": 0.00184979, "INCLINATION": 74.0192, "RA_OF_ASC_NODE": 187.1923, "ARG_OF_PERICENTER": 240.7026, "MEAN_ANOMALY": 277.1993, "EPHEMERIS_TYPE": 0, "CLASSIFICATION_TYPE": "U", "NORAD_CAT_ID": 34271, "ELEMENT_SET_NO": 999, "REV_AT_EPOCH": 88326, "BSTAR": 0.0014472167, "MEAN_MOTION_DOT": 8.86e-05, "MEAN_MOTION_DDOT": 0}, "tle": {"line1": "1 34271U 93036LR  25352.98485058  .00008860  00000+0  14472-2 0  9993", "line2": "2 34271  74.0192 187.1923 0018497 240.7026 277.1993 14.70888158883268"}}, "geometry": {"type": "Point", "coordinates": [-149.26346483178213, 55.147700646780606]}}, {"type": "Feature", "properties": {"norad_id": 34273, "name": "COSMOS 2251 DEB", "group": "cosmos-2251-debris", "lat": -28.56930246533565, "lon": -96.28997418985449, "alt_km": 684.9137816701659, "timestamp": "2025-12-19T08:58:49.730932+00:00", "meta": {"OBJECT_NAME": "COSMOS 2251 DEB", "OBJECT_ID": "1993-036LT", "EPOCH": "2025-12-18T16:16:45.689376", "MEAN_MOTION": 14.61278636, "ECCENTRICITY": 0.00138012, "INCLINATION": 74.0365, "RA_OF_ASC_NODE": 76.0729, "ARG_OF_PERICENTER": 201.9734, "MEAN_ANOMALY": 308.4768, "EPHEMERIS_TYPE": 0, "CLASSIFICATION_TYPE": "U", "NORAD_CAT_ID": 34273, "ELEMENT_SET_NO": 999, "REV_AT_EPOCH": 88708, "BSTAR": 0.00068595035, "MEAN_MOTION_DOT": 3.361e-05, "MEAN_MOTION_DDOT": 0}, "tle": {"line1": "1 34273U 93036LT  25352.67830659  .00003361  00000+0  68595-3 0  9999", "line2": "2 34273  74.0365  76.0729 0013801 201.9734 308.4768 14.61278636887087"}}, "geometry": {"type": "Point", "coordinates": [-96.28997418985449, -28.56930246533565]}}, {"type": "Feature", "properties": {"norad_id": 34274, "name": "COSMOS 2251 DEB", "group": "cosmos-2251-debris", "lat": 16.279839488900166, "lon": 60.591158342015014, "alt_km": 693.0181351132778, "timestamp": "2025-12-19T08:58:49.730942+00:00", "meta": {"OBJECT_NAME": "COSMOS 2251 DEB", "OBJECT_ID": "1993-036LU", "EPOCH": "2025-12-18T15:34:15.489696", "MEAN_MOTION": 14.64850333, "ECCENTRICITY": 0.00217363, "INCLINATION": 74.0045, "RA_OF_ASC_NODE": 57.1828, "ARG_OF_PERICENTER": 206.8556, "MEAN_ANOMALY": 306.3916, "EPHEMERIS_TYPE": 0, "CLASSIFICATION_TYPE": "U", "NORAD_CAT_ID": 34274, "ELEMENT_SET_NO": 999, "REV_AT_EPOCH": 88762, "BSTAR": 0.00079740872, "MEAN_MOTION_DOT": 4.245e-05, "MEAN_MOTION_DDOT": 0}, "tle": {"line1": "1 34274U 93036LU  25352.64879039  .00004245  00000+0  79741-3 0  9999", "line2": "2 34274  74.0045  57.1828 0021736 206.8556 306.3916 14.64850333887620"}}, "geometry": {"type": "Point", "coordinates": [60.591158342015014, 16.279839488900166]}}, {"type": "Feature", "properties": {"norad_id": 34276, "name": "COSMOS 2251 DEB", "group": "cosmos-2251-debris", "lat": 44.00914460371417, "lon": -123.35798747242778, "alt_km": 696.5752975982159, "timestamp": "2025-12-19T08:58:49.730952+00:00", "meta": {"OBJECT_NAME": "COSMOS 2251 DEB", "OBJECT_ID": "1993-036LW", "EPOCH": "2025-12-18T16:35:24.725760", "MEAN_MOTION": 14.57267095, "ECCENTRICITY": 0.00224037, "INCLINATION": 74.024, "RA_OF_ASC_NODE": 74.0056, "ARG_OF_PERICENTER": 220.3015, "MEAN_ANOMALY": 292.3118, "EPHEMERIS_TYPE": 0, "CLASSIFICATION_TYPE": "U", "NORAD_CAT_ID": 34276, "ELEMENT_SET_NO": 999, "REV_AT_EPOCH": 88679, "BSTAR": 0.00054339097, "MEAN_MOTION_DOT": 2.437e-05, "MEAN_MOTION_DDOT": 0}, "tle": {"line1": "1 34276U 93036LW  25352.69125840  .00002437  00000+0  54339-3 0  9997", "line2": "2 34276  74.0240  74.0056 0022403 220.3015 292.3118 14.57267095886797"}}, "geometry": {"type": "Point", "coordinates": [-123.35798747242778, 44.00914460371417]}}, {"type": "Feature", "properties": {"norad_id": 34297, "name": "COSMOS 2251 DEB", "group": "cosmos-2251-debris", "lat": 13.48221511274193, "lon": -84.01781320416018, "alt_km": 760.023742462371, "timestamp": "2025-12-19T08:58:49.730962+00:00", "meta": {"OBJECT_NAME": "COSMOS 2251 DEB", "OBJECT_ID": "1993-036MT", "EPOCH": "2025-12-18T21:30:56.896704", "MEAN_MOTION": 14.36634393, "ECCENTRICITY": 0.00175262, "INCLINATION": 74.0488, "RA_OF_ASC_NODE": 272.9271, "ARG_OF_PERICENTER": 340.5081, "MEAN_ANOMALY": 83.9334, "EPHEMERIS_TYPE": 0, "CLASSIFICATION_TYPE": "U", "NORAD_CAT_ID": 34297, "ELEMENT_SET_NO": 999, "REV_AT_EPOCH": 88153, "BSTAR": 0.0001039886, "MEAN_MOTION_DOT": 2.8e-06, "MEAN_MOTION_DDOT": 0}, "tle": {"line1": "1 34297U 93036MT  25352.89649186  .00000280  00000+0  10399-3 0  9998", "line2": "2 34297  74.0488 272.9271 0017526 340.5081  83.9334 14.36634393881537"}}, "geometry": {"type": "Point", "coordinates": [-84.01781320416018, 13.48221511274193]}}, {"type": "Feature", "properties": {"norad_id": 34299, "name": "COSMOS 2251 DEB", "group": "cosmos-2251-debris", "lat": 72.45505980775451, "lon": 73.82833881998516, "alt_km": 288.2528353525022, "timestamp": "2025-12-19T08:58:49.730972+00:00", "meta": {"OBJECT_NAME": "COSMOS 2251 DEB", "OBJECT_ID": "1993-036MV", "EPOCH": "2025-12-18T08:22:32.776608", "MEAN_MOTION": 15.85848686, "ECCENTRICITY": 0.00135358, "INCLINATION": 73.9706, "RA_OF_ASC_NODE": 321.6359, "ARG_OF_PERICENTER": 75.3272, "MEAN_ANOMALY": 284.9459, "EPHEMERIS_TYPE": 0, "CLASSIFICATION_TYPE": "U", "NORAD_CAT_ID": 34299, "ELEMENT_SET_NO": 999, "REV_AT_EPOCH": 89099, "BSTAR": 0.0067152091, "MEAN_MOTION_DOT": 0.01869424, "MEAN_MOTION_DDOT": 0}, "tle": {"line1": "1 34299U 93036MV  25352.34899047  .01869424  00000+0  67152-2 0  9995", "line2": "2 34299  73.9706 321.6359 0013535  75.3272 284.9459 15.85848686890998"}}, "geometry": {"type": "Point", "coordinates": [73.82833881998516, 72.45505980775451]}}, {"type": "Feature", "properties": {"norad_id": 34301, "name": "COSMOS 2251 DEB", "group": "cosmos-2251-debris", "lat": 26.206525836855405, "lon": 161.62956057702158, "alt_km": 620.224203754221, "timestamp": "2025-12-19T08:58:49.730982+00:00", "meta": {"OBJECT_NAME": "COSMOS 2251 DEB", "OBJECT_ID": "1993-036MX", "EPOCH": "2025-12-18T20:28:51.464352", "MEAN_MOTION": 14.84832368, "ECCENTRICITY": 0.00107245, "INCLINATION": 74.0044, "RA_OF_ASC_NODE": 154.548, "ARG_OF_PERICENTER": 216.5383, "MEAN_ANOMALY": 268.0889, "EPHEMERIS_TYPE": 0, "CLASSIFICATION_TYPE": "U", "NORAD_CAT_ID": 34301, "ELEMENT_SET_NO": 999, "REV_AT_EPOCH": 88491, "BSTAR": 0.0023629074, "MEAN_MOTION_DOT": 0.00020121, "MEAN_MOTION_DDOT": 0}, "tle": {"line1": "1 34301U 93036MX  25352.85337343  .00020121  00000+0  23629-2 0  9994", "line2": "2 34301  74.0044 154.5480 0010724 216.5383 268.0889 14.84832368884919"}}, "geometry": {"type": "Point", "coordinates": [161.62956057702158, 26.206525836855405]}}, {"type": "Feature", "properties": {"norad_id": 34302, "name": "COSMOS 2251 DEB", "group": "cosmos-2251-debris", "lat": 61.58846123220545, "lon": -100.17437325583757, "alt_km": 802.6169544498462, "timestamp": "2025-12-19T08:58:49.730992+00:00", "meta": {"OBJECT_NAME": "COSMOS 2251 DEB", "OBJECT_ID": "1993-036MY", "EPOCH": "2025-12-18T18:02:28.603680", "MEAN_MOTION": 14.39352535, "ECCENTRICITY": 0.00791153, "INCLINATION": 74.1779, "RA_OF_ASC_NODE": 112.5789, "ARG_OF_PERICENTER": 326.1274, "MEAN_ANOMALY": 163.1606, "EPHEMERIS_TYPE": 0, "CLASSIFICATION_TYPE": "U", "NORAD_CAT_ID": 34302, "ELEMENT_SET_NO": 999, "REV_AT_EPOCH": 87807, "BSTAR": 0.00045332012, "MEAN_MOTION_DOT": 1.435e-05, "MEAN_MOTION_DDOT": 0}, "tle": {"line1": "1 34302U 93036MY  25352.75171995  .00001435  00000+0  45332-3 0  9996", "line2": "2 34302  74.1779 112.5789 0079115 326.1274 163.1606 14.39352535878073"}}, "geometry": {"type": "Point", "coordinates": [-100.17437325583757, 61.58846123220545]}}]}